[{"OBJECT_NAME":"STARLINK-1452","OBJECT_ID":"2020-035N","EPOCH":"2026-03-09T03:54:47.994336","MEAN_MOTION":15.44914586,"ECCENTRICITY":0.00080076,"INCLINATION":53.0334,"RA_OF_ASC_NODE":24.2429,"ARG_OF_PERICENTER":52.8149,"MEAN_ANOMALY":307.3586,"EPHEMERIS_TYPE":0,"CLASSIFICATION_TYPE":"U","NORAD_CAT_ID":45669,"ELEMENT_SET_NO":999,"REV_AT_EPOCH":31928,"BSTAR":0.0019010434,"MEAN_MOTION_DOT":0.0009155,"MEAN_MOTION_DDOT":0},{"OBJECT_NAME":"OBJECT D","OBJECT_ID":"2024-016D","EPOCH":"2026-03-09T22:53:28.816800","MEAN_MOTION":15.4556328,"ECCENTRICITY":0.00075961,"INCLINATION":97.4354,"RA_OF_ASC_NODE":155.9943,"ARG_OF_PERICENTER":82.5472,"MEAN_ANOMALY":277.6639,"EPHEMERIS_TYPE":0,"CLASSIFICATION_TYPE":"U","NORAD_CAT_ID":58823,"ELEMENT_SET_NO":999,"REV_AT_EPOCH":11841,"BSTAR":0.0008320931,"MEAN_MOTION_DOT":0.00040089,"MEAN_MOTION_DDOT":0}]
